{
  "type": "FeatureCollection",
  "features": [
    {
      "type": "Feature",
      "geometry": {
        "type": "Polygon",
        "coordinates": [
          [
            [
              -82.6465964,
              27.7642099
            ],
            [
              -82.6422084,
              27.7612193
            ],
            [
              -82.6370799,
              27.7610294
            ],
            [
              -82.6367581,
              27.7587129
            ],
            [
              -82.623626,
              27.7586369
            ],
            [
              -82.5989068,
              27.8073879
            ],
            [
              -82.6472294,
              27.8066287
            ],
            [
              -82.6467627,
              27.7642479
            ],
            [
              -82.6465964,
              27.7642099
            ]
          ]
        ]
      },
      "properties": {
        "title": "Where we spend our time",
        "folder": "June tours",
        "fillColor": "#F57C00",
        "fillOpacity": 0.25
      }
    },
    {
      "type": "Feature",
      "geometry": {
        "type": "Polygon",
        "coordinates": [
          [
            [
              -82.6467594,
              27.8139526
            ],
            [
              -82.5728632,
              27.8111869
            ],
            [
              -82.5650313,
              27.9247355
            ],
            [
              -82.6639082,
              27.9235221
            ],
            [
              -82.6632385,
              27.8846193
            ],
            [
              -82.6649091,
              27.8330979
            ],
            [
              -82.6549957,
              27.8237997
            ],
            [
              -82.6467594,
              27.8139526
            ]
          ]
        ]
      },
      "properties": {
        "title": "Flood Zone AE or Worse And too far north",
        "folder": "June tours",
        "fillColor": "#000000",
        "fillOpacity": 0.25
      }
    },
    {
      "type": "Feature",
      "geometry": {
        "type": "Polygon",
        "coordinates": [
          [
            [
              -82.6467594,
              27.8139526
            ],
            [
              -82.6385626,
              27.8021283
            ],
            [
              -82.6326197,
              27.7900876
            ],
            [
              -82.6286346,
              27.7822054
            ],
            [
              -82.5728632,
              27.8111869
            ],
            [
              -82.6467594,
              27.8139526
            ]
          ]
        ]
      },
      "properties": {
        "title": "Flood Zone AE or worse",
        "folder": "June tours",
        "fillColor": "#000000",
        "fillOpacity": 0.25
      }
    }
  ]
}